[{"OBJECT_NAME":"EOSSAT-1","OBJECT_ID":"2023-001AW","EPOCH":"2026-03-09T17:40:07.010400","MEAN_MOTION":15.32339828,"ECCENTRICITY":0.00112629,"INCLINATION":97.3357,"RA_OF_ASC_NODE":130.2294,"ARG_OF_PERICENTER":110.3168,"MEAN_ANOMALY":249.9285,"EPHEMERIS_TYPE":0,"CLASSIFICATION_TYPE":"U","NORAD_CAT_ID":55053,"ELEMENT_SET_NO":999,"REV_AT_EPOCH":17668,"BSTAR":0.00024844399,"MEAN_MOTION_DOT":7.695e-5,"MEAN_MOTION_DDOT":0},{"OBJECT_NAME":"STARLINK-32129","OBJECT_ID":"2024-120Y","EPOCH":"2026-03-09T23:12:26.237376","MEAN_MOTION":15.30186821,"ECCENTRICITY":0.00011023,"INCLINATION":53.1612,"RA_OF_ASC_NODE":318.9879,"ARG_OF_PERICENTER":80.4957,"MEAN_ANOMALY":279.6168,"EPHEMERIS_TYPE":0,"CLASSIFICATION_TYPE":"U","NORAD_CAT_ID":60157,"ELEMENT_SET_NO":999,"REV_AT_EPOCH":9649,"BSTAR":6.2011788e-5,"MEAN_MOTION_DOT":1.477e-5,"MEAN_MOTION_DDOT":0}]
